[{"OBJECT_NAME":"STARLINK-1654","OBJECT_ID":"2020-062B","EPOCH":"2026-03-09T23:24:23.698656","MEAN_MOTION":15.68868536,"ECCENTRICITY":0.00033751,"INCLINATION":53.0444,"RA_OF_ASC_NODE":332.2394,"ARG_OF_PERICENTER":329.1833,"MEAN_ANOMALY":30.8985,"EPHEMERIS_TYPE":0,"CLASSIFICATION_TYPE":"U","NORAD_CAT_ID":46326,"ELEMENT_SET_NO":999,"REV_AT_EPOCH":30496,"BSTAR":0.00096287579,"MEAN_MOTION_DOT":0.00113674,"MEAN_MOTION_DDOT":0},{"OBJECT_NAME":"STARLINK-11377 [DTC]","OBJECT_ID":"2024-213F","EPOCH":"2026-03-09T05:23:02.849856","MEAN_MOTION":15.69798435,"ECCENTRICITY":0.00012046,"INCLINATION":53.1574,"RA_OF_ASC_NODE":43.4465,"ARG_OF_PERICENTER":94.3811,"MEAN_ANOMALY":265.7345,"EPHEMERIS_TYPE":0,"CLASSIFICATION_TYPE":"U","NORAD_CAT_ID":62013,"ELEMENT_SET_NO":999,"REV_AT_EPOCH":7484,"BSTAR":0.0016359008,"MEAN_MOTION_DOT":0.00203273,"MEAN_MOTION_DDOT":0}]
